DELTA 2 R/B(1)          
1 20453U 90008B   26138.10975234  .00043612  00000+0  38150-3 0  9997
2 20453  35.6021  76.1767 0070954 192.8346 167.0586 15.64489550936980
COSMOS 2058             
1 20465U 90010A   26138.81636793  .00002030  00000+0  11698-3 0  9992
2 20465  82.4682 338.3223 0010944  92.2050 268.0433 15.11826986952839
SL-14 R/B               
1 20466U 90010B   26138.22296795  .00000224  00000+0  24120-4 0  9990
2 20466  82.5037 202.0829 0021295  72.4053 287.9486 14.83626478938797
SL-14 R/B               
1 20511U 90018B   26138.78009937  .00000202  00000+0  22358-4 0  9997
2 20511  82.5203 157.5954 0015263 216.8375 143.1792 14.82196086932967
HST                     
1 20580U 90037B   26138.73667359  .00004776  00000+0  15018-3 0  9991
2 20580  28.4749 281.8021 0001743 160.1368 199.9296 15.30415038784052
SL-16 R/B               
1 20625U 90046B   26138.46982785 -.00000213  00000+0 -84971-4 0  9993
2 20625  70.9974 151.3610 0015141 207.5162 152.5160 14.15022784858268
COSMOS 2084             
1 20663U 90055A   26138.31563544  .00000968  00000+0  79928-4 0  9998
2 20663  62.7881  98.0348 0006841 230.6734 129.3761 15.05977785946807
SL-6 R/B(2)             
1 20666U 90055D   26138.66086388  .00000983  00000+0  84872-4 0  9996
2 20666  62.7833  15.8430 0035942   0.8617 359.2538 15.03888550948714
SL-8 R/B                
1 20775U 90078B   26138.54752627  .00013320  00000+0  37904-3 0  9997
2 20775  82.9027 188.3985 0354822 138.1495 224.7449 14.91303010819707
SL-8 R/B                
1 21088U 91006B   26138.51235851 -.00000036  00000+0 -51847-4 0  9994
2 21088  82.9398 118.1104 0021920 196.0717 284.1665 13.77504727773687
OKEAN-3                 
1 21397U 91039A   26138.35742486  .00001711  00000+0  11780-3 0  9992
2 21397  82.5148 269.3038 0015885  93.0700 267.2344 15.05165891875514
COSMOS 2151             
1 21422U 91042A   26138.51559818  .00000780  00000+0  59943-4 0  9997
2 21422  82.4980  16.3145 0012217 176.0404 184.0919 15.00350801873664
SL-14 R/B               
1 21423U 91042B   26138.44289562  .00000218  00000+0  24537-4 0  9993
2 21423  82.4918 154.7902 0017405  17.2898 342.8905 14.81881683863406
ERS-1                   
1 21574U 91050A   26138.76298782  .00000165  00000+0  67534-4 0  9993
2 21574  98.7814 158.7405 0031770 356.6596   3.4374 14.39497328825811
ARIANE 40 R/B           
1 21610U 91050F   26138.37016228  .00000163  00000+0  61059-4 0  9998
2 21610  98.1897 187.9454 0002508 197.2865 162.8241 14.42937409829045
INTERCOSMOS 25          
1 21819U 91086A   26138.81304748  .00000724  00000+0  14202-3 0  9994
2 21819  82.6029 267.5854 1485243 325.7785  25.5643 12.12158701505183
SL-8 R/B                
1 21876U 92008B   26138.44752198  .00000063  00000+0  49380-4 0  9999
2 21876  82.9288 215.8970 0033313 300.8862  71.3777 13.75972843719014
SL-8 R/B                
1 21938U 92020B   26138.68997373 -.00000008  00000+0 -24617-4 0  9991
2 21938  82.9283 101.7661 0030443 101.6328  71.3404 13.75546756710752
USA 81                  
1 21949U 92023A   26138.79541764  .00000123  00000+0  38091-4 0  9994
2 21949  85.0062  90.9692 0002265 108.4189 251.7250 14.32388911104826
COSMOS 2219             
1 22219U 92076A   26138.55153568 -.00000188  00000+0 -73935-4 0  9997
2 22219  71.0614 232.0236 0015589  93.3416 266.9490 14.14102376728258
SL-16 R/B               
1 22220U 92076B   26138.47082480 -.00000207  00000+0 -79342-4 0  9994
2 22220  71.0012  41.3804 0013444 339.0784 194.1284 14.16868149731717
COSMOS 2221             
1 22236U 92080A   26138.45109541  .00000863  00000+0  73696-4 0  9994
2 22236  82.5052 212.2498 0013054 322.9893  37.0427 14.96451456791225
SL-16 R/B               
1 22285U 92093B   26138.63193392 -.00000113  00000+0 -33679-4 0  9996
2 22285  71.0214 217.4356 0005539 222.4760 137.5935 14.15457980723053
COSMOS 2228             
1 22286U 92094A   26138.82126602  .00001100  00000+0  91794-4 0  9996
2 22286  82.5178 170.1692 0019406  68.5607 291.7683 14.97476023786551
SL-16 R/B               
1 22566U 93016B   26138.82088900  .00000025  00000+0  37404-4 0  9993
2 22566  71.0084  67.8850 0011771 225.6257 134.3903 14.15312072712091
COSMOS 2242             
1 22626U 93024A   26138.63381653  .00000975  00000+0  82604-4 0  9995
2 22626  82.5200 199.8134 0017723  72.6781 287.6378 14.96811133790850
SL-16 R/B               
1 22803U 93059B   26138.63435979  .00000194  00000+0  11984-3 0  9996
2 22803  70.9904 223.6243 0015013 105.8083 254.4697 14.17241767689441
ARIANE 40 R/B           
1 22830U 93061H   26138.45844830  .00000120  00000+0  59462-4 0  9992
2 22830  98.4830 205.9312 0011940  79.8068 280.4462 14.32893767704090
COSMOS 2278             
1 23087U 94023A   26138.04814399 -.00000226  00000+0 -93184-4 0  9996
2 23087  71.0545  29.9855 0011032 279.6582  80.3294 14.14385264654614
SL-16 R/B               
1 23088U 94023B   26138.69962816 -.00000147  00000+0 -51427-4 0  9992
2 23088  71.0003 283.8574 0004358 223.1624 136.9157 14.15022961655998
SL-16 R/B               
1 23343U 94074B   26138.81592933  .00000226  00000+0  36842-4 0  9995
2 23343  97.7011 166.7586 0006564   6.5816 166.5118 14.79474532697611
SL-16 R/B               
1 23405U 94077B   26138.44195185  .00000258  00000+0  15623-3 0  9992
2 23405  70.9824 205.7410 0001240   4.7212 355.3922 14.15570719626102
ARIANE 40+ R/B          
1 23561U 95021B   26138.67634191  .00000154  00000+0  63011-4 0  9995
2 23561  98.4419 209.1760 0005519 296.4417 215.7679 14.39815251629319
SL-16 R/B               
1 23705U 95058B   26138.66431638  .00000242  00000+0  14790-3 0  9992
2 23705  71.0231  33.3434 0012269   3.1616 356.9582 14.15507031577756
SL-16 R/B               
1 24298U 96051B   26138.42865041  .00000121  00000+0  92218-4 0  9995
2 24298  70.7634  27.6314 0013221  24.9949 335.1808 14.12435097531499
ORBVIEW 2 (SEASTAR)     
1 24883U 97037A   26138.74612936  .00000118  00000+0  57387-4 0  9992
2 24883  98.8664 304.9534 0001906 183.3620 176.7552 14.35536614518527
SL-16 R/B               
1 25400U 98043G   26138.82445668  .00000000  00000+0  19065-4 0  9992
2 25400  98.8350  92.7343 0010024 165.0717 195.0760 14.26063165448983
SL-16 R/B               
1 25407U 98045B   26138.42897970 -.00000226  00000+0 -89965-4 0  9992
2 25407  71.0127  34.9126 0009759 276.9500  83.0513 14.16201142436973
ISS (ZARYA)             
1 25544U 98067A   26138.84297498  .00006222  00000+0  11987-3 0  9991
2 25544  51.6325  85.3646 0007538  73.2548 286.9267 15.49265459567208
CZ-4B R/B               
1 25732U 99025C   26138.88282748  .00000026  00000+0  32897-4 0  9991
2 25732  98.6507 181.4558 0037871 141.6654  31.9171 14.18277881398112
OKEAN-O                 
1 25860U 99039A   26138.40593845  .00000364  00000+0  54435-4 0  9996
2 25860  97.9334 197.5432 0001980  97.4230 262.7208 14.80427484444700
SL-16 R/B               
1 25861U 99039B   26138.11789368  .00000288  00000+0  43295-4 0  9999
2 25861  97.9856 197.0641 0015560  36.8726 323.3554 14.81811921447146
DELTA 2 R/B             
1 25876U 99041E   26138.37738419  .00000100  00000+0  54886-4 0  9998
2 25876  51.7646  22.8760 0501780 193.9494 164.7133 14.11959556372872
HELIOS 1B               
1 25977U 99064A   26138.45547924  .00000827  00000+0  96707-4 0  9997
2 25977  98.1637  42.7333 0001552 128.1406 231.9950 14.87918299695639
TERRA                   
1 25994U 99068A   26138.84872286  .00000237  00000+0  57232-4 0  9990
2 25994  97.9476 189.5552 0001665   1.7693  85.3995 14.61077139405324
SL-16 R/B               
1 26070U 00006B   26138.74512198 -.00000098  00000+0 -25520-4 0  9994
2 26070  71.0017 310.5326 0014474  73.0073 287.2635 14.15830675358473
TITAN 4B R/B            
1 26474U 00047B   26138.78478166  .00001557  00000+0  10190-3 0  9992
2 26474  67.9872 203.3226 0044415 317.2223  42.5473 15.10024191403499
ENVISAT                 
1 27386U 02009A   26138.83067441  .00000035  00000+0  25306-4 0  9997
2 27386  98.3820  90.8070 0001213  91.8323 291.5876 14.39057051269263
IDEFIX & ARIANE 42P R/B 
1 27422U 02021B   26138.55447980  .00000127  00000+0  64982-4 0  9996
2 27422  98.5937  76.3606 0011606 348.1472  11.9436 14.31066360254017
AQUA                    
1 27424U 02022A   26138.89477691  .00000465  00000+0  10231-3 0  9990
2 27424  98.4262 107.5968 0002037  71.4983 314.6468 14.62107801278999
CZ-4B R/B               
1 27432U 02024C   26138.38131985  .00000021  00000+0  33683-4 0  9993
2 27432  98.8721 191.3915 0050130 183.8010 187.4468 14.14559129239096
MIDORI II (ADEOS-II)    
1 27597U 02056A   26138.59720676  .00000149  00000+0  76368-4 0  9992
2 27597  98.7865  97.6093 0001807 117.0230 243.1136 14.29331175220289
H-2A R/B                
1 27601U 02056E   26138.50239845  .00000139  00000+0  63461-4 0  9991
2 27601  98.3300  96.2618 0069282 314.4774 154.7801 14.33806712224111
CZ-4B R/B               
1 28059U 03049C   26138.73145171  .00000195  00000+0  56404-4 0  9996
2 28059  98.6899 136.4072 0048515  19.4091 340.8938 14.55076838196788
CZ-2C R/B               
1 28222U 04012C   26138.19299332  .00051081  00000+0  36550-3 0  9997
2 28222  97.7111 210.5024 0010497  58.4234 301.8053 15.73519767215172
SL-16 R/B               
1 28353U 04021B   26138.60371510  .00000324  00000+0  19320-3 0  9997
2 28353  70.9999  85.7719 0006968 285.6578  74.3775 14.14606461132724
CZ-4B R/B               
1 28415U 04035C   26138.84006713  .00005586  00000+0  19106-3 0  9994
2 28415  97.3386 172.2521 0033087  80.5546 279.9432 15.30134951190634
CZ-2C R/B               
1 28480U 04046B   26138.46214272  .00000083  00000+0  46635-4 0  9992
2 28480  98.1963  49.0969 0138382 308.9284  49.9627 14.27018107118453
ARIANE 5 R/B            
1 28499U 04049H   26138.76062959  .00000496  00000+0  60996-4 0  9995
2 28499  98.2705 309.8817 0085103 123.5466 237.3912 14.85396591156195
